NORAD_CAT_ID,OBJECT_NAME,OBJECT_TYPE,EPOCH,MEAN_MOTION,ECCENTRICITY,INCLINATION,RA_OF_ASC_NODE,ARG_OF_PERICENTER,MEAN_ANOMALY,BSTAR,MEAN_MOTION_DOT,MEAN_MOTION_DDOT,TLE_LINE0,TLE_LINE1,TLE_LINE2,SEMIMAJOR_AXIS,PERIOD,APOGEE,PERIGEE,DECAYED
53534.0,STARLINK-4488,PAYLOAD,2022-12-01 21:01:12,15.08824181,0.0002076,53.2213,33.3558,43.0151,317.1003,-1.1965e-05,-4.79e-06,0.0,0 STARLINK-4488,1 53534U 22101H   22335.87584326 -.00000479  00000-0 -11965-4 0  9992,2 53534  53.2213  33.3558 0002076  43.0151 317.1003 15.08824181 15946,6917.929,95.439,541.23,538.3580000000002,0.0
53534.0,STARLINK-4488,PAYLOAD,2022-12-02 16:05:50,15.08833017,0.0002204,53.2201,29.7849,40.15,319.9655,9.8456e-06,-1.32e-06,0.0,0 STARLINK-4488,1 53534U 22101H   22336.67072294 -.00000132  00000-0  98456-5 0  9993,2 53534  53.2201  29.7849 0002204  40.1500 319.9655 15.08833017 16069,6917.901999999999,95.438,541.2909999999998,538.242,0.0
53534.0,STARLINK-4488,PAYLOAD,2022-12-03 12:45:51,15.08832136,0.0002166,53.2216,25.919,37.7662,322.3482,3.8391e-06,-2.27e-06,0.0,0 STARLINK-4488,1 53534U 22101H   22337.53184675 -.00000227  00000-0  38391-5 0  9993,2 53534  53.2216  25.9190 0002166  37.7662 322.3482 15.08832136 16191,6917.904,95.438,541.268,538.271,0.0
53534.0,STARLINK-4488,PAYLOAD,2022-12-03 15:56:37,15.08831933,0.0002203,53.2205,25.3245,35.3191,324.7947,-1.1856e-05,-4.77e-06,0.0,0 STARLINK-4488,1 53534U 22101H   22337.66432808 -.00000477  00000-0 -11856-4 0  9995,2 53534  53.2205  25.3245 0002203  35.3191 324.7947 15.08831933 16216,6917.905,95.438,541.294,538.246,0.0
53534.0,STARLINK-4488,PAYLOAD,2022-12-04 03:04:19,15.08840675,0.0002127,53.2218,23.2423,32.4373,327.6749,-7.1371e-05,-1.424e-05,0.0,0 STARLINK-4488,1 53534U 22101H   22338.12800548 -.00001424  00000-0 -71371-4 0  9998,2 53534  53.2218  23.2423 0002127  32.4373 327.6749 15.08840675 16282,6917.878000000002,95.438,541.215,538.2719999999998,0.0
53534.0,STARLINK-4488,PAYLOAD,2022-12-04 12:36:38,15.088439800000002,0.0002382,53.2203,21.4594,34.5457,325.5689,6.3495e-05,7.22e-06,0.0,0 STARLINK-4488,1 53534U 22101H   22338.52544175  .00000722  00000-0  63495-4 0  9999,2 53534  53.2203  21.4594 0002382  34.5457 325.5689 15.08843980 16343,6917.868,95.437,541.381,538.085,0.0
53534.0,STARLINK-4488,PAYLOAD,2022-12-05 09:16:38,15.08844981,0.0002161,53.2197,17.5924,28.279,331.8319,7.531399999999999e-05,9.11e-06,0.0,0 STARLINK-4488,1 53534U 22101H   22339.38655891  .00000911  00000-0  75314-4 0  9995,2 53534  53.2197  17.5924 0002161  28.2790 331.8319 15.08844981 16479,6917.865,95.437,541.225,538.235,0.0
53534.0,STARLINK-4488,PAYLOAD,2022-12-05 14:02:48,15.08844726,0.0002046,53.2213,16.6996,33.0192,327.0927,7.914e-05,9.72e-06,0.0,0 STARLINK-4488,1 53534U 22101H   22339.58527851  .00000972  00000-0  79140-4 0  9999,2 53534  53.2213  16.6996 0002046  33.0192 327.0927 15.08844726 16502,6917.866,95.437,541.146,538.316,0.0
53534.0,STARLINK-4488,PAYLOAD,2022-12-06 09:07:25,15.08842923,0.0002395,53.2206,13.1343,33.1157,326.9984,7.7662e-06,-1.65e-06,0.0,0 STARLINK-4488,1 53534U 22101H   22340.38016163 -.00000165  00000-0  77662-5 0  9991,2 53534  53.2206  13.1343 0002395  33.1157 326.9984 15.08842923 16622,6917.871,95.437,541.393,538.08,0.0
53534.0,STARLINK-4488,PAYLOAD,2022-12-06 12:18:12,15.08841393,0.0002434,53.2217,12.541,39.962,320.1551,3.3613e-07,-2.83e-06,0.0,0 STARLINK-4488,1 53534U 22101H   22340.51264313 -.00000283  00000-0  33613-6 0  9998,2 53534  53.2217  12.5410 0002434  39.9620 320.1551 15.08841393 16643,6917.876,95.437,541.425,538.057,0.0
53534.0,STARLINK-4488,PAYLOAD,2022-12-07 02:36:41,15.08836652,0.0002423,53.2203,9.8629,37.3737,322.7423,-9.5556e-05,-1.809e-05,0.0,0 STARLINK-4488,1 53534U 22101H   22341.10881084 -.00001809  00000-0 -95556-4 0  9992,2 53534  53.2203   9.8629 0002423  37.3737 322.7423 15.08836652 16736,6917.891,95.438,541.432,538.0790000000002,0.0
53534.0,STARLINK-4488,PAYLOAD,2022-12-07 18:30:32,15.08837912,0.0002333,53.2207,6.8897,35.3083,324.8063,-4.7485e-07,-2.96e-06,0.0,0 STARLINK-4488,1 53534U 22101H   22341.77120848 -.00000296  00000-0 -47485-6 0  9998,2 53534  53.2207   6.8897 0002333  35.3083 324.8063 15.08837912 16830,6917.887,95.438,541.366,538.138,0.0
53534.0,STARLINK-4488,PAYLOAD,2022-12-08 02:27:27,15.08841003,0.000225,53.2215,5.4019,30.984,329.1285,2.9983e-05,1.89e-06,0.0,0 STARLINK-4488,1 53534U 22101H   22342.10240501  .00000189  00000-0  29983-4 0  9995,2 53534  53.2215   5.4019 0002250  30.9840 329.1285 15.08841003 16885,6917.877,95.437,541.299,538.186,0.0
53534.0,STARLINK-4488,PAYLOAD,2022-12-08 11:59:46,15.0884024,0.0002287,53.2211,3.6179,32.3906,327.7226,6.1163e-05,6.85e-06,0.0,0 STARLINK-4488,1 53534U 22101H   22342.49984476  .00000685  00000-0  61163-4 0  9990,2 53534  53.2211   3.6179 0002287  32.3906 327.7226 15.08840240 16945,6917.88,95.438,541.327,538.163,0.0
53534.0,STARLINK-4488,PAYLOAD,2022-12-08 18:21:19,15.08840624,0.0002399,53.2204,2.4283,34.2344,325.8803,1.5371e-05,-4.4e-07,0.0,0 STARLINK-4488,1 53534U 22101H   22342.76480615 -.00000044  00000-0  15371-4 0  9996,2 53534  53.2204   2.4283 0002399  34.2344 325.8803 15.08840624 16981,6917.878000000002,95.438,541.403,538.0840000000002,0.0
53534.0,STARLINK-4488,PAYLOAD,2022-12-09 11:50:35,15.08824431,0.0002165,53.2213,359.1601,36.8057,323.3084,1.6787e-05,-2.1e-07,0.0,0 STARLINK-4488,1 53534U 22101H   22343.49346148 -.00000021  00000-0  16787-4 0  9996,2 53534  53.2213 359.1601 0002165  36.8057 323.3084 15.08824431 17092,6917.928000000001,95.439,541.2909999999998,538.295,0.0
53534.0,STARLINK-4488,PAYLOAD,2022-12-10 08:30:36,15.08830103,0.0002275,53.2214,355.2934,38.4601,321.6553,5.3776e-06,-2.03e-06,0.0,0 STARLINK-4488,1 53534U 22101H   22344.35458636 -.00000203  00000-0  53776-5 0  9990,2 53534  53.2214 355.2934 0002275  38.4601 321.6553 15.08830103 17224,6917.911,95.438,541.349,538.202,0.0
53534.0,STARLINK-4488,PAYLOAD,2022-12-11 00:24:26,15.08841263,0.000218,53.2208,352.3201,20.1314,339.9763,0.000102,1.336e-05,0.0,0 STARLINK-4488,1 53534U 22101H   22345.01697515  .00001336  00000-0  10200-3 0  9995,2 53534  53.2208 352.3201 0002180  20.1314 339.9763 15.08841263 17321,6917.877,95.437,541.25,538.2330000000002,0.0
53534.0,STARLINK-4488,PAYLOAD,2022-12-11 06:45:59,15.08837619,0.0002304,53.222,351.1305,37.009,323.1061,0.000189,2.721e-05,0.0,0 STARLINK-4488,1 53534U 22101H   22345.28193715  .00002721  00000-0  18900-3 0  9991,2 53534  53.2220 351.1305 0002304  37.0090 323.1061 15.08837619 17363,6917.888000000001,95.438,541.347,538.159,0.0
53534.0,STARLINK-4488,PAYLOAD,2022-12-12 06:36:46,15.08844423,0.0002595,53.2213,346.67,32.873000000000005,327.2423,0.00011221,1.498e-05,0.0,0 STARLINK-4488,1 53534U 22101H   22346.27553776  .00001498  00000-0  11221-3 0  9997,2 53534  53.2213 346.6700 0002595  32.8730 327.2423 15.08844423 17514,6917.8669999999975,95.437,541.5269999999998,537.937,0.0
53534.0,STARLINK-4488,PAYLOAD,2022-12-12 11:22:56,15.0883771,0.0002758,53.2217,345.7793,28.5271,331.5872,7.836199999999999e-05,9.59e-06,0.0,0 STARLINK-4488,1 53534U 22101H   22346.47426307  .00000959  00000-0  78362-4 0  9999,2 53534  53.2217 345.7793 0002758  28.5271 331.5872 15.08837710 17543,6917.887,95.438,541.66,537.844,0.0
53534.0,STARLINK-4488,PAYLOAD,2022-12-13 09:38:19,15.08845864,0.0002526,53.2201,341.6156,32.5687,327.546,2.0071e-05,3.1e-07,0.0,0 STARLINK-4488,1 53534U 22101H   22347.40161594  .00000031  00000-0  20071-4 0  9992,2 53534  53.2201 341.6156 0002526  32.5687 327.5460 15.08845864 17685,6917.861999999999,95.437,541.475,537.98,0.0
53534.0,STARLINK-4488,PAYLOAD,2022-12-14 09:29:06,15.08838244,0.000254,53.2197,337.1551,33.7328,326.3825,3.2125e-05,2.23e-06,0.0,0 STARLINK-4488,1 53534U 22101H   22348.39521842  .00000223  00000-0  32125-4 0  9993,2 53534  53.2197 337.1551 0002540  33.7328 326.3825 15.08838244 17832,6917.886,95.438,541.508,537.994,0.0
53534.0,STARLINK-4488,PAYLOAD,2022-12-14 15:50:39,15.08843376,0.0002468,53.2215,335.9652,31.4671,328.6469,-1.8136e-05,-5.77e-06,0.0,0 STARLINK-4488,1 53534U 22101H   22348.66017600 -.00000577  00000-0 -18136-4 0  9995,2 53534  53.2215 335.9652 0002468  31.4671 328.6469 15.08843376 17871,6917.87,95.437,541.442,538.028,0.0
53534.0,STARLINK-4488,PAYLOAD,2022-12-14 23:47:35,15.08833111,0.0002486,53.2196,334.4795,34.2379,325.8773,-3.0703e-05,-7.77e-06,0.0,0 STARLINK-4488,1 53534U 22101H   22348.99138380 -.00000777  00000-0 -30703-4 0  9996,2 53534  53.2196 334.4795 0002486  34.2379 325.8773 15.08833111 17926,6917.901,95.438,541.486,538.047,0.0
53534.0,STARLINK-4488,PAYLOAD,2022-12-15 07:44:30,15.08839584,0.0002513,53.2203,332.99300000000005,37.2785,322.8381,3.9242e-05,3.36e-06,0.0,0 STARLINK-4488,1 53534U 22101H   22349.32257831  .00000336  00000-0  39242-4 0  9993,2 53534  53.2203 332.9930 0002513  37.2785 322.8381 15.08839584 17971,6917.882,95.438,541.485,538.008,0.0
53534.0,STARLINK-4488,PAYLOAD,2022-12-15 10:55:17,15.08837688,0.0002588,53.2202,332.3979,37.385,322.7322,3.945e-05,3.39e-06,0.0,0 STARLINK-4488,1 53534U 22101H   22349.45505980  .00000339  00000-0  39450-4 0  9992,2 53534  53.2202 332.3979 0002588  37.3850 322.7322 15.08837688 17992,6917.887,95.438,541.543,537.962,0.0
53534.0,STARLINK-4488,PAYLOAD,2022-12-15 15:41:26,15.08835726,0.0002603,53.2198,331.5058,37.0827,323.0345,-2.8543e-05,-7.43e-06,0.0,0 STARLINK-4488,1 53534U 22101H   22349.65378346 -.00000743  00000-0 -28543-4 0  9990,2 53534  53.2198 331.5058 0002603  37.0827 323.0345 15.08835726 18029,6917.893,95.438,541.559,537.9580000000002,0.0
53534.0,STARLINK-4488,PAYLOAD,2022-12-16 04:24:31,15.0884914,0.0002554,53.2208,329.125,32.1147,328.0,4.9675e-05,5.02e-06,0.0,0 STARLINK-4488,1 53534U 22101H   22350.18369213  .00000502  00000-0  49675-4 0  9993,2 53534  53.2208 329.1250 0002554  32.1147 328.0000 15.08849140 18101,6917.852,95.437,541.484,537.951,0.0
